ONEWEB-0228             
1 48780U 21045P   24067.54203188 -.00000138  00000+0 -40026-3 0  9997
2 48780  87.8951  64.6917 0001954  83.5704 276.5648 13.15548203134981
